{"type": "FeatureCollection", "features": [ {"type": "Feature", "properties": {"norad_id": 34784, "name": "COSMOS 2251 DEB", "group": "cosmos-2251-debris", "lat": -28.992921319090936, "lon": -44.54102047768364, "alt_km": 729.8116629607484, "timestamp": "2025-12-12T14:39:18.327692+00:00", "meta": {"OBJECT_NAME": "COSMOS 2251 DEB", "OBJECT_ID": "1993-036AAM", "EPOCH": "2025-12-12T00:00:06.416928", "MEAN_MOTION": 14.60774143, "ECCENTRICITY": 0.0049435, "INCLINATION": 74.0075, "RA_OF_ASC_NODE": 325.7716, "ARG_OF_PERICENTER": 135.3394, "MEAN_ANOMALY": 225.1771, "EPHEMERIS_TYPE": 0, "CLASSIFICATION_TYPE": "U", "NORAD_CAT_ID": 34784, "ELEMENT_SET_NO": 999, "REV_AT_EPOCH": 88524, "BSTAR": 0.00076688, "MEAN_MOTION_DOT": 3.779e-05, "MEAN_MOTION_DDOT": 0}, "tle": {"line1": "1 34784U 93036AAM 25346.00007427  .00003779  00000+0  76688-3 0  9990", "line2": "2 34784  74.0075 325.7716 0049435 135.3394 225.1771 14.60774143885244"}}, "geometry": {"type": "Point", "coordinates": [-44.54102047768364, -28.992921319090936]}}, {"type": "Feature", "properties": {"norad_id": 34790, "name": "COSMOS 2251 DEB", "group": "cosmos-2251-debris", "lat": 62.04778929316374, "lon": 31.330223900727127, "alt_km": 874.0454230974992, "timestamp": "2025-12-12T14:39:18.327701+00:00", "meta": {"OBJECT_NAME": "COSMOS 2251 DEB", "OBJECT_ID": "1993-036AAT", "EPOCH": "2025-12-12T04:44:34.895904", "MEAN_MOTION": 14.2462878, "ECCENTRICITY": 0.01007462, "INCLINATION": 74.0522, "RA_OF_ASC_NODE": 244.6799, "ARG_OF_PERICENTER": 306.4348, "MEAN_ANOMALY": 209.2227, "EPHEMERIS_TYPE": 0, "CLASSIFICATION_TYPE": "U", "NORAD_CAT_ID": 34790, "ELEMENT_SET_NO": 999, "REV_AT_EPOCH": 86565, "BSTAR": 0.0010742752, "MEAN_MOTION_DOT": 2.606e-05, "MEAN_MOTION_DDOT": 0}, "tle": {"line1": "1 34790U 93036AAT 25346.19762611  .00002606  00000+0  10743-2 0  9997", "line2": "2 34790  74.0522 244.6799 0100746 306.4348 209.2227 14.24628780865658"}}, "geometry": {"type": "Point", "coordinates": [31.330223900727127, 62.04778929316374]}}, {"type": "Feature", "properties": {"norad_id": 34792, "name": "COSMOS 2251 DEB", "group": "cosmos-2251-debris", "lat": 44.373068601512934, "lon": -173.76185073789125, "alt_km": 709.1730491770959, "timestamp": "2025-12-12T14:39:18.327710+00:00", "meta": {"OBJECT_NAME": "COSMOS 2251 DEB", "OBJECT_ID": "1993-036AAV", "EPOCH": "2025-12-12T07:00:34.627680", "MEAN_MOTION": 14.55948251, "ECCENTRICITY": 0.00124489, "INCLINATION": 74.0176, "RA_OF_ASC_NODE": 170.5586, "ARG_OF_PERICENTER": 264.6967, "MEAN_ANOMALY": 272.9353, "EPHEMERIS_TYPE": 0, "CLASSIFICATION_TYPE": "U", "NORAD_CAT_ID": 34792, "ELEMENT_SET_NO": 999, "REV_AT_EPOCH": 87643, "BSTAR": 0.001550949, "MEAN_MOTION_DOT": 6.802e-05, "MEAN_MOTION_DDOT": 0}, "tle": {"line1": "1 34792U 93036AAV 25346.29206745  .00006802  00000+0  15509-2 0  9998", "line2": "2 34792  74.0176 170.5586 0012448 264.6967 272.9353 14.55948251876436"}}, "geometry": {"type": "Point", "coordinates": [-173.76185073789125, 44.373068601512934]}}, {"type": "Feature", "properties": {"norad_id": 34793, "name": "COSMOS 2251 DEB", "group": "cosmos-2251-debris", "lat": -13.198460236368932, "lon": 74.46338890580182, "alt_km": 797.8246378906897, "timestamp": "2025-12-12T14:39:18.327732+00:00", "meta": {"OBJECT_NAME": "COSMOS 2251 DEB", "OBJECT_ID": "1993-036AAW", "EPOCH": "2025-12-12T04:29:36.240000", "MEAN_MOTION": 14.38643294, "ECCENTRICITY": 0.00502694, "INCLINATION": 74.0027, "RA_OF_ASC_NODE": 251.3876, "ARG_OF_PERICENTER": 45.6431, "MEAN_ANOMALY": 115.7084, "EPHEMERIS_TYPE": 0, "CLASSIFICATION_TYPE": "U", "NORAD_CAT_ID": 34793, "ELEMENT_SET_NO": 999, "REV_AT_EPOCH": 87322, "BSTAR": 0.00039934426, "MEAN_MOTION_DOT": 1.216e-05, "MEAN_MOTION_DDOT": 0}, "tle": {"line1": "1 34793U 93036AAW 25346.18722500  .00001216  00000+0  39934-3 0  9992", "line2": "2 34793  74.0027 251.3876 0050269  45.6431 115.7084 14.38643294873227"}}, "geometry": {"type": "Point", "coordinates": [74.46338890580182, -13.198460236368932]}}, {"type": "Feature", "properties": {"norad_id": 34796, "name": "COSMOS 2251 DEB", "group": "cosmos-2251-debris", "lat": -70.11873221489985, "lon": 164.2241154213473, "alt_km": 679.4349328281114, "timestamp": "2025-12-12T14:39:18.327741+00:00", "meta": {"OBJECT_NAME": "COSMOS 2251 DEB", "OBJECT_ID": "1993-036AAZ", "EPOCH": "2025-12-11T15:56:49.295616", "MEAN_MOTION": 14.48680944, "ECCENTRICITY": 0.01002247, "INCLINATION": 74.0297, "RA_OF_ASC_NODE": 218.361, "ARG_OF_PERICENTER": 320.6455, "MEAN_ANOMALY": 69.5316, "EPHEMERIS_TYPE": 0, "CLASSIFICATION_TYPE": "U", "NORAD_CAT_ID": 34796, "ELEMENT_SET_NO": 999, "REV_AT_EPOCH": 88012, "BSTAR": 0.00094017782, "MEAN_MOTION_DOT": 3.746e-05, "MEAN_MOTION_DDOT": 0}, "tle": {"line1": "1 34796U 93036AAZ 25345.66445944  .00003746  00000+0  94018-3 0  9995", "line2": "2 34796  74.0297 218.3610 0100224 320.6455  69.5316 14.48680944880122"}}, "geometry": {"type": "Point", "coordinates": [164.2241154213473, -70.11873221489985]}}, {"type": "Feature", "properties": {"norad_id": 34797, "name": "COSMOS 2251 DEB", "group": "cosmos-2251-debris", "lat": 45.64457069585199, "lon": 117.3193092995245, "alt_km": 794.6100698653427, "timestamp": "2025-12-12T14:39:18.327751+00:00", "meta": {"OBJECT_NAME": "COSMOS 2251 DEB", "OBJECT_ID": "1993-036ABA", "EPOCH": "2025-12-08T02:15:30.483648", "MEAN_MOTION": 14.42690241, "ECCENTRICITY": 0.00721111, "INCLINATION": 73.9779, "RA_OF_ASC_NODE": 108.638, "ARG_OF_PERICENTER": 222.8023, "MEAN_ANOMALY": 136.7506, "EPHEMERIS_TYPE": 0, "CLASSIFICATION_TYPE": "U", "NORAD_CAT_ID": 34797, "ELEMENT_SET_NO": 999, "REV_AT_EPOCH": 87348, "BSTAR": 0.0033221371, "MEAN_MOTION_DOT": 0.00011397, "MEAN_MOTION_DDOT": 0}, "tle": {"line1": "1 34797U 93036ABA 25342.09410282  .00011397  00000+0  33221-2 0  9996", "line2": "2 34797  73.9779 108.6380 0072111 222.8023 136.7506 14.42690241873482"}}, "geometry": {"type": "Point", "coordinates": [117.3193092995245, 45.64457069585199]}}, {"type": "Feature", "properties": {"norad_id": 34814, "name": "COSMOS 2251 DEB", "group": "cosmos-2251-debris", "lat": 33.03689663199923, "lon": -23.493518885260507, "alt_km": 806.5978737828909, "timestamp": "2025-12-12T14:39:18.327760+00:00", "meta": {"OBJECT_NAME": "COSMOS 2251 DEB", "OBJECT_ID": "1993-036ABD", "EPOCH": "2025-12-12T04:32:11.308992", "MEAN_MOTION": 14.36890565, "ECCENTRICITY": 0.00562518, "INCLINATION": 73.8961, "RA_OF_ASC_NODE": 326.4591, "ARG_OF_PERICENTER": 216.0666, "MEAN_ANOMALY": 158.5556, "EPHEMERIS_TYPE": 0, "CLASSIFICATION_TYPE": "U", "NORAD_CAT_ID": 34814, "ELEMENT_SET_NO": 999, "REV_AT_EPOCH": 87325, "BSTAR": 0.001238429, "MEAN_MOTION_DOT": 3.705e-05, "MEAN_MOTION_DDOT": 0}, "tle": {"line1": "1 34814U 93036ABD 25346.18901978  .00003705  00000+0  12384-2 0  9998", "line2": "2 34814  73.8961 326.4591 0056251 216.0666 158.5556 14.36890565873259"}}, "geometry": {"type": "Point", "coordinates": [-23.493518885260507, 33.03689663199923]}}, {"type": "Feature", "properties": {"norad_id": 34815, "name": "COSMOS 2251 DEB", "group": "cosmos-2251-debris", "lat": 9.1138182181648, "lon": 59.4238574347396, "alt_km": 667.9162083620458, "timestamp": "2025-12-12T14:39:18.327769+00:00", "meta": {"OBJECT_NAME": "COSMOS 2251 DEB", "OBJECT_ID": "1993-036ABE", "EPOCH": "2025-12-12T04:08:15.756576", "MEAN_MOTION": 14.78303806, "ECCENTRICITY": 0.00588646, "INCLINATION": 74.0451, "RA_OF_ASC_NODE": 242.9144, "ARG_OF_PERICENTER": 312.1081, "MEAN_ANOMALY": 47.5097, "EPHEMERIS_TYPE": 0, "CLASSIFICATION_TYPE": "U", "NORAD_CAT_ID": 34815, "ELEMENT_SET_NO": 999, "REV_AT_EPOCH": 88619, "BSTAR": 0.0013778323, "MEAN_MOTION_DOT": 0.00010289, "MEAN_MOTION_DDOT": 0}, "tle": {"line1": "1 34815U 93036ABE 25346.17240459  .00010289  00000+0  13778-2 0  9991", "line2": "2 34815  74.0451 242.9144 0058864 312.1081  47.5097 14.78303806886191"}}, "geometry": {"type": "Point", "coordinates": [59.4238574347396, 9.1138182181648]}}, {"type": "Feature", "properties": {"norad_id": 34816, "name": "COSMOS 2251 DEB", "group": "cosmos-2251-debris", "lat": 3.880660015993459, "lon": -37.790527039645255, "alt_km": 805.8647736190396, "timestamp": "2025-12-12T14:39:18.327779+00:00", "meta": {"OBJECT_NAME": "COSMOS 2251 DEB", "OBJECT_ID": "1993-036ABF", "EPOCH": "2025-12-12T03:45:47.255616", "MEAN_MOTION": 13.58319359, "ECCENTRICITY": 0.03734567, "INCLINATION": 73.8863, "RA_OF_ASC_NODE": 144.0733, "ARG_OF_PERICENTER": 208.6345, "MEAN_ANOMALY": 271.0321, "EPHEMERIS_TYPE": 0, "CLASSIFICATION_TYPE": "U", "NORAD_CAT_ID": 34816, "ELEMENT_SET_NO": 999, "REV_AT_EPOCH": 82775, "BSTAR": 0.0017839318, "MEAN_MOTION_DOT": 2.021e-05, "MEAN_MOTION_DDOT": 0}, "tle": {"line1": "1 34816U 93036ABF 25346.15679694  .00002021  00000+0  17839-2 0  9994", "line2": "2 34816  73.8863 144.0733 0373456 208.6345 271.0321 13.58319359827759"}}, "geometry": {"type": "Point", "coordinates": [-37.790527039645255, 3.880660015993459]}}, {"type": "Feature", "properties": {"norad_id": 34818, "name": "COSMOS 2251 DEB", "group": "cosmos-2251-debris", "lat": 67.1637377527184, "lon": 74.35148076317142, "alt_km": 762.6740640700664, "timestamp": "2025-12-12T14:39:18.327788+00:00", "meta": {"OBJECT_NAME": "COSMOS 2251 DEB", "OBJECT_ID": "1993-036ABH", "EPOCH": "2025-12-12T06:07:24.155616", "MEAN_MOTION": 14.36966335, "ECCENTRICITY": 0.00241918, "INCLINATION": 74.0359, "RA_OF_ASC_NODE": 297.83, "ARG_OF_PERICENTER": 13.6859, "MEAN_ANOMALY": 54.317, "EPHEMERIS_TYPE": 0, "CLASSIFICATION_TYPE": "U", "NORAD_CAT_ID": 34818, "ELEMENT_SET_NO": 999, "REV_AT_EPOCH": 87363, "BSTAR": 0.0003627249, "MEAN_MOTION_DOT": 1.052e-05, "MEAN_MOTION_DDOT": 0}, "tle": {"line1": "1 34818U 93036ABH 25346.25514069  .00001052  00000+0  36272-3 0  9997", "line2": "2 34818  74.0359 297.8300 0024191  13.6859  54.3170 14.36966335873635"}}, "geometry": {"type": "Point", "coordinates": [74.35148076317142, 67.1637377527184]}}]}